[{"OBJECT_NAME":"TIANQI-6","OBJECT_ID":"2020-076D","EPOCH":"2026-03-09T22:50:24.728640","MEAN_MOTION":15.06417552,"ECCENTRICITY":0.00106023,"INCLINATION":34.9994,"RA_OF_ASC_NODE":297.1791,"ARG_OF_PERICENTER":9.4595,"MEAN_ANOMALY":350.6312,"EPHEMERIS_TYPE":0,"CLASSIFICATION_TYPE":"U","NORAD_CAT_ID":46810,"ELEMENT_SET_NO":999,"REV_AT_EPOCH":29360,"BSTAR":0.00037023286,"MEAN_MOTION_DOT":5.552e-5,"MEAN_MOTION_DDOT":0},{"OBJECT_NAME":"STARLINK-3148","OBJECT_ID":"2021-115N","EPOCH":"2026-03-09T12:45:29.556576","MEAN_MOTION":15.08843633,"ECCENTRICITY":0.0001451,"INCLINATION":53.2182,"RA_OF_ASC_NODE":149.7179,"ARG_OF_PERICENTER":105.4644,"MEAN_ANOMALY":254.6508,"EPHEMERIS_TYPE":0,"CLASSIFICATION_TYPE":"U","NORAD_CAT_ID":49736,"ELEMENT_SET_NO":999,"REV_AT_EPOCH":23551,"BSTAR":3.4553316e-5,"MEAN_MOTION_DOT":2.62e-6,"MEAN_MOTION_DDOT":0}]
